satname,norad_id,inclination_deg,eccentricity,mean_motion_rev_per_day,perigee_km,apogee_km,l1,l2
STARLINK-1470,45772,53.0512,0.0007593,15.21195219,497.0099999865479,507.4585317909259,1 45772U 20038AU  25353.82722539  .00008776  00000+0  40244-3 0  9998,2 45772  53.0512 183.0497 0007593 101.7776 258.4072 15.21195219304896
STARLINK-1482,45773,53.0523,0.0001408,15.06401251,546.2326352689961,548.1828123432206,1 45773U 20038AV  25353.83709694  .00002780  00000+0  20547-3 0  9990,2 45773  53.0523 195.0887 0001408  89.9625 270.1526 15.06401251304720
STARLINK-1496,45780,53.0536,0.0001027,15.14837641,520.7629222986989,522.1801018870838,1 45780U 20038BC  25353.91668980  .00096915  00000+0  51002-2 0  9991,2 45780  53.0536 194.6314 0001027 174.5583 129.8429 15.14837641  5841
STARLINK-1497,45781,53.0323,0.0001026,15.70097905,357.9257523794504,359.30813428862257,1 45781U 20038BD  25353.91668980  .00181837  00000+0  14494-2 0  9994,2 45781  53.0323 120.5413 0001026  78.1654 359.7028 15.70097905  6002
STARLINK-1510,45784,53.0215,0.0006641,15.97176689,277.83299084609644,286.6793250384753,1 45784U 20038BG  25353.91668980  .00413149  81203-4  92672-3 0  9995,2 45784  53.0215  89.4162 0006641 331.1540 305.5669 15.97176689  5907
STARLINK-1513,45786,53.054,0.0001555,15.06414001,546.0917621940043,548.2455322502901,1 45786U 20038BJ  25353.83339422  .00001566  00000+0  12393-3 0  9993,2 45786  53.0540 195.1069 0001555  98.5851 261.5315 15.06414001304723
STARLINK-1522,46027,53.0548,0.0001299,15.06401197,546.3082870069857,548.1074916092275,1 46027U 20055A   25353.34962933 -.00000316  00000+0 -23138-5 0  9991,2 46027  53.0548 127.2767 0001299  96.4553 263.6584 15.06401197296770
STARLINK-1523,46028,53.0554,0.0001041,15.06401054,546.4873991333634,547.9292560305657,1 46028U 20055B   25353.62976059  .00000277  00000+0  37474-4 0  9998,2 46028  53.0554 126.0240 0001041  95.7386 264.3722 15.06401054296833
STARLINK-1526,46029,53.0549,0.0001136,15.06399853,546.4252888247802,547.9987281195044,1 46029U 20055C   25353.35700045 -.00000411  00000+0 -87262-5 0  9992,2 46029  53.0549 127.2442 0001136  90.8170 269.2949 15.06399853296789
STARLINK-1555,46032,53.0549,0.0001369,15.06399041,546.2664165167571,548.1625777566733,1 46032U 20055F   25352.67879375  .00000034  00000+0  21145-4 0  9999,2 46032  53.0549 130.2873 0001369  98.4710 261.6435 15.06399041296681
STARLINK-1556,46033,53.0556,0.0001228,15.06407733,546.3374276159184,548.038287400922,1 46033U 20055G   25353.52286088  .00000944  00000+0  82254-4 0  9996,2 46033  53.0556 126.5012 0001228  79.6697 280.4430 15.06407733296785
STARLINK-1557,46034,53.056,0.0001519,15.06401934,546.1536709675911,548.2575900587408,1 46034U 20055H   25353.39385670 -.00000907  00000+0 -41972-4 0  9992,2 46034  53.0560 127.0799 0001519  82.4556 277.6606 15.06401934296766
STARLINK-1558,46035,53.0541,0.0001171,15.06398616,546.4048408893486,548.0267585150377,1 46035U 20055J   25353.66661909 -.00000746  00000+0 -31211-4 0  9991,2 46035  53.0541 125.8574 0001171  88.3838 271.7285 15.06398616296833
STARLINK-1560,46036,53.0543,0.0001353,15.06404056,546.2621289323697,548.1361248883104,1 46036U 20055K   25352.78937316  .00001324  00000+0  10775-3 0  9994,2 46036  53.0543 129.7962 0001353  81.2490 278.8652 15.06404056296706
STARLINK-1567,46038,53.0544,0.0001391,15.06412121,546.2110982511149,548.1377198851169,1 46038U 20055M   25353.66293566  .00002694  00000+0  19959-3 0  9990,2 46038  53.0544 125.8723 0001391  79.9354 280.1792 15.06412121296822
STARLINK-1569,46039,53.0562,0.0001719,15.06361331,546.139587598931,548.5205631794506,1 46039U 20055N   25353.80300058  .00006453  00000+0  45215-3 0  9993,2 46039  53.0562 125.2388 0001719  95.7071 264.4114 15.06361331296841
STARLINK-1582,46043,53.0559,0.0001235,15.06406941,546.3350069349681,548.0455627743268,1 46043U 20055S   25353.41228889  .00000816  00000+0  73649-4 0  9996,2 46043  53.0559 126.9970 0001235  81.9879 278.1250 15.06406941296786
STARLINK-1591,46045,53.0562,0.0001572,15.06401997,546.1167735964955,548.2941012588226,1 46045U 20055U   25353.63712853  .00000095  00000+0  25303-4 0  9994,2 46045  53.0562 125.9878 0001572  84.6794 275.4375 15.06401997296805
STARLINK-1524,46047,53.0549,0.0001269,15.06407663,546.3092482948687,548.0668957981534,1 46047U 20055W   25353.78916733  .00000313  00000+0  39887-4 0  9990,2 46047  53.0549 115.3058 0001269  81.6474 278.4659 15.06407663296983
STARLINK-1527,46048,53.0556,0.0001541,15.06392894,546.1661373215238,548.3005364593546,1 46048U 20055X   25352.59124818 -.00000182  00000+0  66688-5 0  9999,2 46048  53.0556 120.6833 0001541  79.5399 280.5764 15.06392894296785
STARLINK-1540,46051,53.0562,0.00012,15.06401165,546.3769459848827,548.0390287818545,1 46051U 20055AA  25353.35423417 -.00001420  00000+0 -76448-4 0  9996,2 46051  53.0562 117.2593 0001200  90.1135 269.9991 15.06401165296932
STARLINK-1541,46052,53.0563,0.0001131,15.0639205,546.452663972761,548.0191833280905,1 46052U 20055AB  25352.67602290 -.00000834  00000+0 -37125-4 0  9996,2 46052  53.0563 120.3008 0001131  94.2438 265.8680 15.06392050296790
STARLINK-1543,46053,53.0571,0.0001264,15.0639603,546.3483598475186,548.099091038911,1 46053U 20055AC  25353.34317713 -.00000298  00000+0 -11388-5 0  9993,2 46053  53.0571 117.3050 0001264  85.3981 274.7152 15.06396030296924
STARLINK-1548,46054,53.0543,0.0001206,15.06398067,546.3822845606419,548.0526800617763,1 46054U 20055AD  25353.35054669 -.00000695  00000+0 -27789-4 0  9995,2 46054  53.0543 117.2729 0001206  85.9044 274.2083 15.06398067296928
STARLINK-1554,46055,53.0558,0.0001584,15.0639653,546.1252161127495,548.319169905094,1 46055U 20055AE  25353.60119796  .00000169  00000+0  30249-4 0  9996,2 46055  53.0558 116.1494 0001584  91.8221 268.2950 15.06396530296967
STARLINK-1564,46058,53.0562,0.0001367,15.06401974,546.2588135983597,548.1522022400259,1 46058U 20055AH  25353.61230492 -.00000268  00000+0  89800-6 0  9997,2 46058  53.0562 116.5609 0001367  84.9148 275.1997 15.06401974296953
STARLINK-1570,46059,53.0548,0.0001076,15.06397564,546.473855629315,547.9641922456658,1 46059U 20055AJ  25353.64173875 -.00001018  00000+0 -49502-4 0  9990,2 46059  53.0548 115.9705 0001076  90.4592 269.6520 15.06397564296926
STARLINK-1572,46060,53.0556,0.0001206,15.0639749,546.3840527736138,548.0544487012921,1 46060U 20055AK  25353.63805187  .00000470  00000+0  50424-4 0  9993,2 46060  53.0556 115.9826 0001206  87.2053 272.9074 15.06397490296932
